[{"sources":["Doat 23"],"id":"40","placename":"Aragon","years":[1226],"period1":false,"period2":false,"period3":true,"period4":false,"period0":false,"geo":{"type":"Feature","properties":{},"geometry":{"type":"Point","coordinates":[43.29638,2.31432]}}},{"sources":["MS 609"],"id":"61","placename":"Arzens","years":[1216],"period1":false,"period2":true,"period3":false,"period4":false,"period0":false,"geo":{"type":"Feature","properties":{},"geometry":{"type":"Point","coordinates":[43.1999,2.2097]}}},{"sources":["Doat 24","MS 609"],"id":"1","placename":"Auriac","years":[1210,1216,1216,1220,1220],"period1":false,"period2":true,"period3":true,"period4":false,"period0":false,"geo":{"type":"Feature","properties":{},"geometry":{"type":"Point","coordinates":[43.52558,1.81935]}}},{"sources":["MS 609"],"id":"53","placename":"Avignonet","years":[1206,1215,1215,1215,1215,1215,1215,1221,1225,1225,1225],"period1":true,"period2":true,"period3":true,"period4":false,"period0":false,"geo":{"type":"Feature","properties":{},"geometry":{"type":"Point","coordinates":[43.3672,1.7845]}}},{"sources":["Doat 23","MS 609"],"id":"34","placename":"Azille","years":[1200,1209,1210],"period1":true,"period2":true,"period3":false,"period4":false,"period0":false,"geo":{"type":"Feature","properties":{},"geometry":{"type":"Point","coordinates":[43.2779,2.6584]}}},{"sources":["MS 609"],"id":"65","placename":"Baraigne","years":[1215,1215],"period1":false,"period2":true,"period3":false,"period4":false,"period0":false,"geo":{"type":"Feature","properties":{},"geometry":{"type":"Point","coordinates":[43.3314,1.8242]}}},{"sources":["MS 609"],"id":"54","placename":"Barelles","years":[1221,1223,1225],"period1":false,"period2":false,"period3":true,"period4":false,"period0":false,"geo":{"type":"Feature","properties":{},"geometry":{"type":"Point","coordinates":[43.4101,1.7175]}}},{"sources":["MS 609"],"id":"56","placename":"Baziège","years":[1213],"period1":false,"period2":true,"period3":false,"period4":false,"period0":false,"geo":{"type":"Feature","properties":{},"geometry":{"type":"Point","coordinates":[43.4554,1.616]}}},{"sources":["MS 609"],"id":"72","placename":"Belpech","years":[1225],"period1":false,"period2":false,"period3":true,"period4":false,"period0":false,"geo":{"type":"Feature","properties":{},"geometry":{"type":"Point","coordinates":[43.1986,1.7519]}}},{"sources":["MS 609"],"id":"46","placename":"Boissezon","years":[1220],"period1":false,"period2":false,"period3":true,"period4":false,"period0":false,"geo":{"type":"Feature","properties":{},"geometry":{"type":"Point","coordinates":[43.5761,2.3814]}}},{"sources":["MS 609"],"id":"38","placename":"Bram","years":[1196,1226],"period1":true,"period2":false,"period3":true,"period4":false,"period0":false,"geo":{"type":"Feature","properties":{},"geometry":{"type":"Point","coordinates":[43.2436,2.1153]}}},{"sources":["MS 609"],"id":"62","placename":"Bugnac","years":[1226],"period1":false,"period2":false,"period3":true,"period4":false,"period0":false,"geo":{"type":"Feature","properties":{},"geometry":{"type":"Point","coordinates":[43.5124,1.6717]}}},{"sources":["Doat 23","MS 609"],"id":"33","placename":"Cabaret","years":[1194,1200,1201,1216,1223,1225,1228,1230,1230,1230,1230],"period1":true,"period2":true,"period3":true,"period4":true,"period0":false,"geo":{"type":"Feature","properties":{},"geometry":{"type":"Point","coordinates":[43.3385,2.3764]}}},{"sources":["MS 609"],"id":"42","placename":"Cambiac","years":[1214,1215,1230],"period1":false,"period2":true,"period3":false,"period4":true,"period0":false,"geo":{"type":"Feature","properties":{},"geometry":{"type":"Point","coordinates":[43.4897,1.7931]}}},{"sources":["MS 609"],"id":"69","placename":"Cambon","years":[1205,1225],"period1":true,"period2":false,"period3":true,"period4":false,"period0":false,"geo":{"type":"Feature","properties":{},"geometry":{"type":"Point","coordinates":[43.5877,1.8539]}}},{"sources":["Doat 23","Doat 24","MS 609"],"id":"2","placename":"Caraman","years":[1225,1225],"period1":false,"period2":false,"period3":true,"period4":false,"period0":false,"geo":{"type":"Feature","properties":{},"geometry":{"type":"Point","coordinates":[43.5311,1.7583]}}},{"sources":["MS 609"],"id":"45","placename":"Caraman region","years":[1220],"period1":false,"period2":false,"period3":true,"period4":false,"period0":false,"geo":{"type":"Feature","properties":{},"geometry":{"type":"Point","coordinates":[43.5311,1.7591]}}},{"sources":["MS 609"],"id":"50","placename":"Castelnaudary","years":[1205,1206,1206,1206,1209,1211,1214,1215,1221],"period1":true,"period2":true,"period3":true,"period4":false,"period0":false,"geo":{"type":"Feature","properties":{},"geometry":{"type":"Point","coordinates":[43.3192,1.9544]}}},{"sources":["MS 609"],"id":"43","placename":"Contrast","years":[1220],"period1":false,"period2":false,"period3":true,"period4":false,"period0":false,"geo":{"type":"Feature","properties":{},"geometry":{"type":"Point","coordinates":[43.4848,2.1777]}}},{"sources":["Doat 22","Doat 24"],"id":"3","placename":"Dun","years":[],"period1":false,"period2":false,"period3":false,"period4":false,"period0":true,"geo":{"type":"Feature","properties":{},"geometry":{"type":"Point","coordinates":[43.0273,1.7991]}}},{"sources":["MS 609"],"id":"71","placename":"Durfort","years":[1220],"period1":false,"period2":false,"period3":true,"period4":false,"period0":false,"geo":{"type":"Feature","properties":{},"geometry":{"type":"Point","coordinates":[43.4385,2.0681]}}},{"sources":["Doat 22","Doat 23","Doat 24","MS 609"],"id":"4","placename":"Fanjeaux","years":[1175,1193,1204,1205,1214,1215,1215,1216,1216,1216,1225,1226,1240],"period1":true,"period2":true,"period3":true,"period4":true,"period0":false,"geo":{"type":"Feature","properties":{},"geometry":{"type":"Point","coordinates":[43.1878,2.0344]}}},{"sources":["Doat 23"],"id":"5","placename":"Gaja-la-Selve","years":[],"period1":false,"period2":false,"period3":false,"period4":false,"period0":true,"geo":{"type":"Feature","properties":{},"geometry":{"type":"Point","coordinates":[43.1964,1.8967]}}},{"sources":["Doat 23"],"id":"6","placename":"Giroussens","years":[],"period1":false,"period2":false,"period3":false,"period4":false,"period0":true,"geo":{"type":"Feature","properties":{},"geometry":{"type":"Point","coordinates":[43.7631,1.7769]}}},{"sources":["MS 609"],"id":"7","placename":"Issel","years":[],"period1":false,"period2":false,"period3":false,"period4":false,"period0":true,"geo":{"type":"Feature","properties":{},"geometry":{"type":"Point","coordinates":[43.3681,1.9906]}}},{"sources":["MS 609"],"id":"67","placename":"La Pomarède","years":[],"period1":false,"period2":false,"period3":false,"period4":false,"period0":true,"geo":{"type":"Feature","properties":{},"geometry":{"type":"Point","coordinates":[43.4056,1.9508]}}},{"sources":["MS 609"],"id":"8","placename":"Labécède","years":[1195,1209,1210,1215,1215,1215,1220,1220,1220,1223,1225,1225,1225,1227],"period1":true,"period2":true,"period3":true,"period4":false,"period0":false,"geo":{"type":"Feature","properties":{},"geometry":{"type":"Point","coordinates":[43.3925,2.0061]}}},{"sources":["MS 609"],"id":"9","placename":"Lanta","years":[1215,1216,1224,1227],"period1":false,"period2":true,"period3":true,"period4":false,"period0":false,"geo":{"type":"Feature","properties":{},"geometry":{"type":"Point","coordinates":[43.5603,1.6556]}}},{"sources":["Doat 24","MS 609"],"id":"10","placename":"Lasbordes","years":[1205,1206,1211,1214,1216],"period1":true,"period2":true,"period3":false,"period4":false,"period0":false,"geo":{"type":"Feature","properties":{},"geometry":{"type":"Point","coordinates":[43.2958,2.0467]}}},{"sources":["Doat 23","MS 609"],"id":"11","placename":"Laurac","years":[1200,1205,1205,1206,1211,1213,1215,1215,1216,1216,1220,1221,1226,1226,1226,1226,1226,1226,1227,1228,1228],"period1":true,"period2":true,"period3":true,"period4":false,"period0":false,"geo":{"type":"Feature","properties":{},"geometry":{"type":"Point","coordinates":[43.2286,1.9754]}}},{"sources":["Doat 23","Hystoria","MS 609"],"id":"35","placename":"Laure","years":[1205,1209,1220,1223,1225],"period1":true,"period2":false,"period3":true,"period4":false,"period0":false,"geo":{"type":"Feature","properties":{},"geometry":{"type":"Point","coordinates":[43.2722,2.5211]}}},{"sources":["Doat 23","MS 609"],"id":"12","placename":"Lavaur","years":[1206],"period1":true,"period2":false,"period3":false,"period4":false,"period0":false,"geo":{"type":"Feature","properties":{},"geometry":{"type":"Point","coordinates":[43.6997,1.8197]}}},{"sources":["Doat 22"],"id":"13","placename":"Lavelanet","years":[],"period1":false,"period2":false,"period3":false,"period4":false,"period0":true,"geo":{"type":"Feature","properties":{},"geometry":{"type":"Point","coordinates":[42.9336,1.8494]}}},{"sources":["MS 609"],"id":"22","placename":"Les Cassès","years":[1206,1206,1206,1206,1215,1221,1226,1227],"period1":true,"period2":true,"period3":true,"period4":false,"period0":false,"geo":{"type":"Feature","properties":{},"geometry":{"type":"Point","coordinates":[43.4212,1.8621]}}},{"sources":["Doat 24"],"id":"14","placename":"Lordat","years":[],"period1":false,"period2":false,"period3":false,"period4":false,"period0":true,"geo":{"type":"Feature","properties":{},"geometry":{"type":"Point","coordinates":[42.7769,1.7522]}}},{"sources":["Doat 23","MS 609"],"id":"15","placename":"Mas-Saintes-Puelles","years":[1185,1195,1195,1195,1199,1205,1205,1205,1205,1206,1206,1207,1208,1208,1208,1209,1210,1210,1211,1215,1215,1215,1215,1215,1219,1219,1220,1223,1224,1225,1225],"period1":true,"period2":true,"period3":true,"period4":false,"period0":false,"geo":{"type":"Feature","properties":{},"geometry":{"type":"Point","coordinates":[43.3142,1.8775]}}},{"sources":["Doat 23"],"id":"31","placename":"Miraval","years":[1199,1220,1221,1222,1223,1224,1232],"period1":true,"period2":false,"period3":true,"period4":true,"period0":false,"geo":{"type":"Feature","properties":{},"geometry":{"type":"Point","coordinates":[43.3833,2.3469]}}},{"sources":["Doat 22","Doat 24","MS 609"],"id":"16","placename":"Mirepoix","years":[1216,1220,1227],"period1":false,"period2":true,"period3":true,"period4":false,"period0":false,"geo":{"type":"Feature","properties":{},"geometry":{"type":"Point","coordinates":[43.0897,1.8744]}}},{"sources":["MS 609"],"id":"58","placename":"Montauriol","years":[1216],"period1":false,"period2":true,"period3":false,"period4":false,"period0":false,"geo":{"type":"Feature","properties":{},"geometry":{"type":"Point","coordinates":[43.2786,1.8364]}}},{"sources":["Doat 23","MS 609"],"id":"17","placename":"Montesquieu","years":[1206,1206,1206,1206,1213,1216,1221,1226],"period1":true,"period2":true,"period3":true,"period4":false,"period0":false,"geo":{"type":"Feature","properties":{},"geometry":{"type":"Point","coordinates":[43.4172,1.6294]}}},{"sources":["MS 609"],"id":"60","placename":"Montferrand","years":[1213,1215],"period1":false,"period2":true,"period3":false,"period4":false,"period0":false,"geo":{"type":"Feature","properties":{},"geometry":{"type":"Point","coordinates":[43.3653,1.82]}}},{"sources":["MS 609"],"id":"52","placename":"Montgaillard","years":[1207,1213,1218,1218,1218,1223,1223,1225,1227],"period1":true,"period2":true,"period3":true,"period4":false,"period0":false,"geo":{"type":"Feature","properties":{},"geometry":{"type":"Point","coordinates":[43.4311,1.6979]}}},{"sources":["MS 609"],"id":"63","placename":"Montmaur","years":[1185,1206,1206,1210,1211,1215,1216,1221,1222],"period1":true,"period2":true,"period3":true,"period4":false,"period0":false,"geo":{"type":"Feature","properties":{},"geometry":{"type":"Point","coordinates":[43.3944,1.8447]}}},{"sources":["Doat 23"],"id":"41","placename":"Montolieu","years":[1225],"period1":false,"period2":false,"period3":true,"period4":false,"period0":false,"geo":{"type":"Feature","properties":{},"geometry":{"type":"Point","coordinates":[43.31,2.2158]}}},{"sources":["Doat 23","MS 609"],"id":"32","placename":"Montréal","years":[1200,1203,1206,1215,1218,1220,1224,1225,1225,1226,1226,1226],"period1":true,"period2":true,"period3":true,"period4":false,"period0":false,"geo":{"type":"Feature","properties":{},"geometry":{"type":"Point","coordinates":[43.1978,2.1377]}}},{"sources":["Doat 22","Doat 24","MS 609"],"id":"18","placename":"Montségur","years":[1240,1240,1241,1241,1241,1244],"period1":false,"period2":false,"period3":false,"period4":true,"period0":false,"geo":{"type":"Feature","properties":{},"geometry":{"type":"Point","coordinates":[42.8758,1.8329]}}},{"sources":["MS 609"],"id":"55","placename":"Mourvilles-Hautes","years":[1226,1226],"period1":false,"period2":false,"period3":true,"period4":false,"period0":false,"geo":{"type":"Feature","properties":{},"geometry":{"type":"Point","coordinates":[43.4272,1.8175]}}},{"sources":["MS 609"],"id":"66","placename":"Payra","years":[1216],"period1":false,"period2":true,"period3":false,"period4":false,"period0":false,"geo":{"type":"Feature","properties":{},"geometry":{"type":"Point","coordinates":[43.2672,1.8558]}}},{"sources":["MS 609"],"id":"37","placename":"Pauligne","years":[1223],"period1":false,"period2":false,"period3":true,"period4":false,"period0":false,"geo":{"type":"Feature","properties":{},"geometry":{"type":"Point","coordinates":[43.0744,2.1619]}}},{"sources":["MS 609"],"id":"59","placename":"Péreille","years":[],"period1":false,"period2":false,"period3":false,"period4":false,"period0":true,"geo":{"type":"Feature","properties":{},"geometry":{"type":"Point","coordinates":[42.9397,1.8025]}}},{"sources":["MS 609"],"id":"36","placename":"Peyriac-Minervois","years":[1215],"period1":false,"period2":true,"period3":false,"period4":false,"period0":false,"geo":{"type":"Feature","properties":{},"geometry":{"type":"Point","coordinates":[43.2922,2.5681]}}},{"sources":["Doat 24"],"id":"19","placename":"Puylaurens","years":[],"period1":false,"period2":false,"period3":false,"period4":false,"period0":true,"geo":{"type":"Feature","properties":{},"geometry":{"type":"Point","coordinates":[43.5728,2.0128]}}},{"sources":["Doat 23","Doat 24","MS 609"],"id":"20","placename":"Roquefort","years":[],"period1":false,"period2":false,"period3":false,"period4":false,"period0":true,"geo":{"type":"Feature","properties":{},"geometry":{"type":"Point","coordinates":[43.42108,2.08689]}}},{"sources":["MS 609"],"id":"49","placename":"Saint-Félix","years":[1204,1205,1215],"period1":true,"period2":true,"period3":false,"period4":false,"period0":false,"geo":{"type":"Feature","properties":{},"geometry":{"type":"Point","coordinates":[43.4486,1.8881]}}},{"sources":["MS 609"],"id":"21","placename":"Saint-Félix region","years":[],"period1":false,"period2":false,"period3":false,"period4":false,"period0":true,"geo":{"type":"Feature","properties":{},"geometry":{"type":"Point","coordinates":[43.4486,1.8881]}}},{"sources":["MS 609"],"id":"23","placename":"Saint-Germier","years":[1210,1220,1225,1231],"period1":false,"period2":true,"period3":true,"period4":true,"period0":false,"geo":{"type":"Feature","properties":{},"geometry":{"type":"Point","coordinates":[43.4719,1.7331]}}},{"sources":["MS 609"],"id":"68","placename":"Saint-Julia","years":[1205],"period1":true,"period2":false,"period3":false,"period4":false,"period0":false,"geo":{"type":"Feature","properties":{},"geometry":{"type":"Point","coordinates":[43.4911,1.8983]}}},{"sources":["MS 609"],"id":"51","placename":"Saint-Martin-Lalande","years":[1204,1214,1214,1219,1224],"period1":true,"period2":true,"period3":true,"period4":false,"period0":false,"geo":{"type":"Feature","properties":{},"geometry":{"type":"Point","coordinates":[43.3003,2.02]}}},{"sources":["Doat 23","Doat 24"],"id":"24","placename":"Saint-Paul-Cap-de-Joux","years":[1216],"period1":false,"period2":true,"period3":false,"period4":false,"period0":false,"geo":{"type":"Feature","properties":{},"geometry":{"type":"Point","coordinates":[43.6481,1.9764]}}},{"sources":["MS 609"],"id":"25","placename":"Saint-Paulet","years":[],"period1":false,"period2":false,"period3":false,"period4":false,"period0":true,"geo":{"type":"Feature","properties":{},"geometry":{"type":"Point","coordinates":[43.4069,1.8786]}}},{"sources":["Doat 23","MS 609"],"id":"39","placename":"Saissac","years":[1196,1220,1222,1225,1225,1226,1226,1227,1238],"period1":true,"period2":false,"period3":true,"period4":true,"period0":false,"geo":{"type":"Feature","properties":{},"geometry":{"type":"Point","coordinates":[43.3617,2.1694]}}},{"sources":["Doat 24"],"id":"26","placename":"Tarascon","years":[],"period1":false,"period2":false,"period3":false,"period4":false,"period0":true,"geo":{"type":"Feature","properties":{},"geometry":{"type":"Point","coordinates":[42.8483,1.6067]}}},{"sources":["MS 609"],"id":"57","placename":"Toulouse","years":[1219,1230],"period1":false,"period2":true,"period3":false,"period4":true,"period0":false,"geo":{"type":"Feature","properties":{},"geometry":{"type":"Point","coordinates":[43.6043,1.4437]}}},{"sources":["MS 609"],"id":"70","placename":"Vaudreuille","years":[1215],"period1":false,"period2":true,"period3":false,"period4":false,"period0":false,"geo":{"type":"Feature","properties":{},"geometry":{"type":"Point","coordinates":[43.4269,1.9825]}}},{"sources":["Doat 24"],"id":"27","placename":"Vauré","years":[],"period1":false,"period2":false,"period3":false,"period4":false,"period0":true,"geo":{"type":"Feature","properties":{},"geometry":{"type":"Point","coordinates":[43.4737,1.9913]}}},{"sources":["MS 609"],"id":"48","placename":"Vaux","years":[1220],"period1":false,"period2":false,"period3":true,"period4":false,"period0":false,"geo":{"type":"Feature","properties":{},"geometry":{"type":"Point","coordinates":[43.4572,1.8367]}}},{"sources":["MS 609"],"id":"28","placename":"Verdun","years":[],"period1":false,"period2":false,"period3":false,"period4":false,"period0":true,"geo":{"type":"Feature","properties":{},"geometry":{"type":"Point","coordinates":[43.3664,2.06]}}},{"sources":["Doat 23"],"id":"29","placename":"Villemur","years":[],"period1":false,"period2":false,"period3":false,"period4":false,"period0":true,"geo":{"type":"Feature","properties":{},"geometry":{"type":"Point","coordinates":[43.8664,1.5058]}}},{"sources":["MS 609"],"id":"64","placename":"Villeneuve-la-Comptal","years":[1205,1206,1215,1215,1216],"period1":true,"period2":true,"period3":false,"period4":false,"period0":false,"geo":{"type":"Feature","properties":{},"geometry":{"type":"Point","coordinates":[43.2878,1.9222]}}},{"sources":["MS 609"],"id":"30","placename":"Villepinte","years":[1205,1209],"period1":true,"period2":false,"period3":false,"period4":false,"period0":false,"geo":{"type":"Feature","properties":{},"geometry":{"type":"Point","coordinates":[43.2825,2.0872]}}},{"sources":["MS 609"],"id":"47","placename":"Vintrou","years":[1220],"period1":false,"period2":false,"period3":true,"period4":false,"period0":false,"geo":{"type":"Feature","properties":{},"geometry":{"type":"Point","coordinates":[43.5256,2.4631]}}},{"sources":["MS 609"],"id":"44","placename":"Vitrac","years":[1220,1223,1226],"period1":false,"period2":false,"period3":true,"period4":false,"period0":false,"geo":{"type":"Feature","properties":{},"geometry":{"type":"Point","coordinates":[43.4845,1.8018]}}}]